H1 CPF 01  gfz 2022 07 20 00  7011 terrasarx 
H2 0702601  6201 31698    2022 07 20 00 59 42 2022 07 25 00 00 42   120 1 1  0 0 0
H9
10 0 59783  42462.000000  0     608209.588  -6679188.394   1567139.980
10 0 59783  42582.000000  0     441192.091  -6841382.303    674880.233
10 0 59783  42702.000000  0     264697.436  -6880984.095   -229261.687
10 0 59783  42822.000000  0      83965.157  -6797236.019  -1129370.620
10 0 59783  42942.000000  0     -95700.761  -6591649.182  -2009621.102
10 0 59783  43062.000000  0    -269065.286  -6267969.654  -2854562.307
10 0 59783  43182.000000  0    -431093.133  -5832101.398  -3649394.330
10 0 59783  43302.000000  0    -577073.908  -5291986.861  -4380230.146
10 0 59783  43422.000000  0    -702738.071  -4657448.553  -5034336.268
10 0 59783  43542.000000  0    -804361.201  -3939998.481  -5600348.436
10 0 59783  43662.000000  0    -878854.291  -3152619.419  -6068460.424
10 0 59783  43782.000000  0    -923838.335  -2309523.060  -6430583.445
10 0 59783  43902.000000  0    -937702.216  -1425890.017  -6680474.342
10 0 59783  44022.000000  0    -919643.230   -517597.532  -6813832.509
10 0 59783  44142.000000  0    -869689.493    399062.040  -6828366.074
10 0 59783  44262.000000  0    -788703.417   1307666.806  -6723825.783
10 0 59783  44382.000000  0    -678367.187   2191951.780  -6502008.752
10 0 59783  44502.000000  0    -541150.364   3036092.686  -6166731.381
10 0 59783  44622.000000  0    -380259.154   3824985.124  -5723772.123
10 0 59783  44742.000000  0    -199568.155   4544513.942  -5180781.463
10 0 59783  44862.000000  0      -3536.120   5181807.899  -4547161.369
10 0 59783  44982.000000  0     202892.980   5725476.943  -3833913.520
10 0 59783  45102.000000  0     414402.301   6165825.466  -3053457.039
10 0 59783  45222.000000  0     625425.540   6495036.776  -2219418.816
10 0 59783  45342.000000  0     830278.912   6707325.014  -1346398.544
10 0 59783  45462.000000  0    1023298.630   6799049.077   -449711.839
10 0 59783  45582.000000  0    1198980.571   6768785.001    454883.331
10 0 59783  45702.000000  0    1352118.356   6617353.280   1351471.119
10 0 59783  45822.000000  0    1477935.271   6347801.303   2224265.600
10 0 59783  45942.000000  0    1572207.538   5965342.295   3057896.730
10 0 59783  46062.000000  0    1631376.315   5477251.368   3837688.663
10 0 59783  46182.000000  0    1652644.629   4892719.751   4549924.392
10 0 59783  46302.000000  0    1634058.169   4222672.111   5182091.005
10 0 59783  46422.000000  0    1574564.972   3479550.054   5723098.559
10 0 59783  46542.000000  0    1474056.262   2677073.498   6163468.967
10 0 59783  46662.000000  0    1333386.537   1829981.173   6495497.789
10 0 59783  46782.000000  0    1154372.606    953754.651   6713383.307
10 0 59783  46902.000000  0     939771.709     64332.770   6813320.883
10 0 59783  47022.000000  0     693239.329   -822176.879   6793565.306
10 0 59783  47142.000000  0     419266.767  -1689789.516   6654460.915
10 0 59783  47262.000000  0     123099.229  -2522931.266   6398435.984
10 0 59783  47382.000000  0    -189364.161  -3306719.804   6029962.839
10 0 59783  47502.000000  0    -511685.555  -4027231.300   5555481.836
10 0 59783  47622.000000  0    -837017.231  -4671748.885   4983294.855
10 0 59783  47742.000000  0   -1158243.356  -5228993.314   4323429.181
10 0 59783  47862.000000  0   -1468132.653  -5689330.881   3587467.142
10 0 59783  47982.000000  0   -1759496.918  -6044949.741   2788344.034
10 0 59783  48102.000000  0   -2025352.812  -6290001.284   1940120.627
10 0 59783  48222.000000  0   -2259083.318  -6420704.201   1057732.411
10 0 59783  48342.000000  0   -2454592.986  -6435407.215    156719.991
10 0 59783  48462.000000  0   -2606453.914  -6334609.279   -747052.773
10 0 59783  48582.000000  0   -2710038.859  -6120936.211  -1637686.943
10 0 59783  48702.000000  0   -2761638.415  -5799074.497  -2499536.519
10 0 59783  48822.000000  0   -2758559.090  -5375664.211  -3317490.314
10 0 59783  48942.000000  0   -2699199.360  -4859153.345  -4077241.141
10 0 59783  49062.000000  0   -2583102.196  -4259618.758  -4765535.459
10 0 59783  49182.000000  0   -2410983.847  -3588560.023  -5370399.809
10 0 59783  49302.000000  0   -2184739.078  -2858671.187  -5881341.535
10 0 59783  49422.000000  0   -1907422.624  -2083595.035  -6289521.526
10 0 59783  49542.000000  0   -1583206.626  -1277664.880  -6587896.185
10 0 59783  49662.000000  0   -1217316.608   -455639.811  -6771327.113
10 0 59783  49782.000000  0    -815947.697    367561.869  -6836659.412
10 0 59783  49902.000000  0    -386160.935   1177126.802  -6782769.759
10 0 59783  50022.000000  0      64238.160   1958606.204  -6610583.284
10 0 59783  50142.000000  0     526836.441   2698167.054  -6323060.514
10 0 59783  50262.000000  0     992766.886   3382833.673  -5925153.674
10 0 59783  50382.000000  0    1452874.569   4000714.132  -5423729.091
10 0 59783  50502.000000  0    1897892.400   4541207.887  -4827459.808
10 0 59783  50622.000000  0    2318625.144   4995193.300  -4146687.399
10 0 59783  50742.000000  0    2706137.295   5355189.672  -3393251.902
10 0 59783  50862.000000  0    3051941.218   5615489.901  -2580293.998
10 0 59783  50982.000000  0    3348182.293   5772261.333  -1722030.303
10 0 59783  51102.000000  0    3587815.696   5823610.693   -833505.190
10 0 59783  51222.000000  0    3764769.695   5769611.015     69676.590
10 0 59783  51342.000000  0    3874091.251   5612288.938    971630.303
10 0 59783  51462.000000  0    3912070.556   5355571.971   1856478.275
10 0 59783  51582.000000  0    3876341.154   5005198.387   2708636.895
10 0 59783  51702.000000  0    3765952.780   4568591.761   3513101.053
10 0 59783  51822.000000  0    3581413.452   4054698.774   4255714.211
10 0 59783  51942.000000  0    3324704.237   3473802.080   4923420.874
10 0 59783  52062.000000  0    2999259.789   2837308.725   5504499.470
10 0 59783  52182.000000  0    2609920.074   2157518.588   5988763.985
10 0 59783  52302.000000  0    2162857.112   1447382.258   6367737.298
10 0 59783  52422.000000  0    1665473.821    720250.260   6634794.148
10 0 59783  52542.000000  0    1126278.331    -10378.983   6785269.911
10 0 59783  52662.000000  0     554737.079   -731108.350   6816537.802
10 0 59783  52782.000000  0     -38891.791  -1428888.068   6728052.767
10 0 59783  52902.000000  0    -643742.741  -2091251.771   6521359.911
10 0 59783  53022.000000  0   -1248541.444  -2706539.344   6200068.157
10 0 59783  53142.000000  0   -1841812.635  -3264102.176   5769789.886
10 0 59783  53262.000000  0   -2412096.063  -3754489.455   5238050.189
10 0 59783  53382.000000  0   -2948169.835  -4169613.364   4614163.210
10 0 59783  53502.000000  0   -3439275.392  -4502888.421   3909074.077
10 0 59783  53622.000000  0   -3875336.722  -4749341.247   3135169.295
10 0 59783  53742.000000  0   -4247169.325  -4905689.264   2306060.046
10 0 59783  53862.000000  0   -4546676.178  -4970386.749   1436341.274
10 0 59783  53982.000000  0   -4767025.078  -4943635.275    541329.642
10 0 59783  54102.000000  0   -4902802.290  -4827358.541   -363213.227
10 0 59783  54222.000000  0   -4950138.958  -4625142.297  -1261367.110
10 0 59783  54342.000000  0   -4906805.962  -4342140.145  -2137343.238
10 0 59783  54462.000000  0   -4772274.390  -3984947.187  -2975770.076
10 0 59783  54582.000000  0   -4547741.091  -3561446.378  -3761967.438
10 0 59783  54702.000000  0   -4236120.033  -3080632.739  -4482204.452
10 0 59783  54822.000000  0   -3841999.943  -2552419.208  -5123937.099
10 0 59783  54942.000000  0   -3371569.522  -1987429.176  -5676020.511
10 0 59783  55062.000000  0   -2832513.301  -1396781.044  -6128893.494
10 0 59783  55182.000000  0   -2233880.474   -791868.912  -6474733.693
10 0 59783  55302.000000  0   -1585928.596   -184144.144  -6707581.214
10 0 59783  55422.000000  0    -899946.903    415097.570  -6823429.281
10 0 59783  55542.000000  0    -188063.002    994920.474  -6820285.422
10 0 59783  55662.000000  0     536966.552   1544943.253  -6698201.767
10 0 59783  55782.000000  0    1261978.270   2055519.669  -6459276.084
10 0 59783  55902.000000  0    1973636.334   2517905.389  -6107620.428
10 0 59783  56022.000000  0    2658673.348   2924406.888  -5649297.860
10 0 59783  56142.000000  0    3304134.592   3268509.798  -5092226.963
10 0 59783  56262.000000  0    3897621.857   3544986.032  -4446057.366
10 0 59783  56382.000000  0    4427534.495   3749977.706  -3722013.690
10 0 59783  56502.000000  0    4883301.609   3881054.635  -2932709.171
10 0 59783  56622.000000  0    5255598.700   3937243.874  -2091931.217
10 0 59783  56742.000000  0    5536544.934   3919031.120  -1214402.971
10 0 59783  56862.000000  0    5719875.612   3828331.994   -315523.645
10 0 59783  56982.000000  0    5801084.888   3668434.386    588905.962
10 0 59783  57102.000000  0    5777535.395   3443912.316   1482968.473
10 0 59783  57222.000000  0    5648529.928   3160512.849   2350918.908
10 0 59783  57342.000000  0    5415343.992   2825020.189   3177470.623
10 0 59783  57462.000000  0    5081218.062   2445099.429   3948072.904
10 0 59783  57582.000000  0    4651308.582   2029123.540   4649172.382
10 0 59783  57702.000000  0    4132602.690   1585989.812   5268451.480
10 0 59783  57822.000000  0    3533798.336   1124930.145   5795046.272
10 0 59783  57942.000000  0    2865148.024    655317.706   6219733.404
10 0 59783  58062.000000  0    2138276.298    186476.653   6535083.727
10 0 59783  58182.000000  0    1365974.470   -272501.193   6735586.315
10 0 59783  58302.000000  0     561972.921   -712931.861   6817741.042
10 0 59783  58422.000000  0    -259305.020  -1126703.083   6780115.266
10 0 59783  58542.000000  0   -1083001.611  -1506423.103   6623366.539
10 0 59783  58662.000000  0   -1894092.544  -1845552.860   6350230.579
10 0 59783  58782.000000  0   -2677658.672  -2138517.862   5965475.893
10 0 59783  58902.000000  0   -3419159.998  -2380800.466   5475828.604
99
